THURAYA-4               
1 62483U 25001A   26176.17732737  .00000149  00000+0  00000+0 0  9992
2 62483   0.0269  69.4729 0000151 343.0662 328.9298  1.00274366  4251
TJS-14                  
1 62804U 25017A   26176.31469626  .00000126  00000+0  00000+0 0  9991
2 62804   0.7637 296.1963 0001143 297.0291 171.9379  1.00268562  5350
SPAINSAT NG I           
1 62852U 25021A   26175.53265336  .00000159  00000+0  00000+0 0  9990
2 62852   0.0160 358.9479 0000199  59.3861  75.0858  1.00270272  4062
QZS-6 (MICHIBIKI-6)     
1 62876U 25023A   26176.47128407 -.00000223  00000+0  00000+0 0  9992
2 62876   0.0575 280.3408 0001983 187.0873  66.3466  1.00273250  5037
ZHONGXING-10R           
1 63075U 25036A   26176.50878063 -.00000342  00000+0  00000+0 0  9994
2 63075   0.0698 251.2531 0004181 248.1411  67.9075  1.00268970  5046
TIANLIAN 2-04           
1 63361U 25062A   26176.39817572 -.00000121  00000+0  00000+0 0  9991
2 63361   4.3531 274.3186 0031219  10.2932 212.3327  1.00272096  4686
TIANLIAN 2-05           
1 63662U 25084A   26175.81602639  .00000137  00000+0  00000+0 0  9997
2 63662   4.4314 279.7471 0003382 153.9556 153.4019  1.00274890  4455
SXM-10                  
1 64290U 25122A   26175.71773956 -.00000008  00000+0  00000+0 0  9996
2 64290   0.0207  35.0737 0001809 336.6407  43.3689  1.00271244  3753
CHINASAT 9C             
1 64470U 25132A   26176.47128407 -.00000237  00000+0  00000+0 0  9990
2 64470   0.0313  95.8264 0003347 355.1501  84.5000  1.00272444  4231
MTG-S1                  
1 64723U 25143A   26175.74071355  .00000023  00000+0  00000+0 0  9993
2 64723   0.5970 340.6178 0000585 288.6722 269.7793  1.00400949  3493
DROR 1                  
1 64784U 25148A   26176.38161030 -.00000025  00000+0  00000+0 0  9999
2 64784   0.0143 309.6884 0002756  87.7543   9.4359  1.00271631  3375
SHIYAN-29               
1 65486U 25196A   26175.65659755 -.00000281  00000+0  00000+0 0  9991
2 65486  28.8296  18.4412 0012596 175.5410  50.0372  1.00283963  2957
NUSANTARA LIMA (NUSANT*)
1 65588U 25205A   26176.04830759 -.00000348  00000+0  00000+0 0  9998
2 65588   0.0367 148.1537 0000315 353.9981 261.2923  1.00269667  2796
TJS-20                  
1 66142U 25238A   26175.96698457  .00000037  00000+0  00000+0 0  9992
2 66142   5.4515 299.5256 0004587 162.2869 221.8174  1.00269888  2411
CMS-03 (GSAT-7R)        
1 66311U 25249B   26176.39704904 -.00000066  00000+0  00000+0 0  9998
2 66311   0.0251 273.9137 0002087 163.6784  52.8543  1.00270425  2438
VIASAT-3 F2             
1 66454U 25261A   26175.82000622 -.00000225  00000+0  00000+0 0  9990
2 66454   0.0049 139.4651 0000235  46.4657 303.2621  1.00272510  2873
SHIJIAN-28 (SJ-28)      
1 66549U 25277A   26176.59280797 -.00000345  00000+0  00000+0 0  9993
2 66549   4.5163 271.9966 0000825  45.4521 286.5265  1.00273811  2231
TJS-22                  
1 66990U 25290A   26175.85534608  .00000004  00000+0  00000+0 0  9990
2 66990   1.5104 286.6656 0002258 322.1996  38.5189  1.00272288  2108
TJS-23                  
1 67226U 25306A   26175.58161637  .00000026  00000+0  00000+0 0  9993
2 67226   5.5714 297.4484 0004773 179.8475 180.2975  1.00267423  1960
FENGYUN 4C              
1 67246U 25312A   26176.55135066 -.00000313  00000+0  00000+0 0  9997
2 67246   0.0548 155.9512 0000618 357.6189  91.6096  1.00271645  1868
SHIJIAN-29B (SJ-29B)    
1 67403U 25315C   26175.96915124 -.00000060  00000+0  00000+0 0  9999
2 67403   3.4168  94.9169 0004351  34.9381 205.3365  1.00270682  1767
ELEKTRO-L 5             
1 67756U 26028A   26176.02993194 -.00000088  00000+0  00000+0 0  9993
2 67756   0.2379 315.0403 0001767 182.6330 222.3363  1.00272189  1332
JAM-E JAM 1             
1 67757U 26028B   26176.53173993  .00000166  00000+0  00000+0 0  9993
2 67757   0.2425 305.0946 0000951 273.7263 280.4246  1.00280688  1201
ECHOSTAR 25             
1 68126U 26045A   26176.50315366 -.00000046  00000+0  00000+0 0  9990
2 68126   0.0145  10.0673 0001825  78.5248 256.1741  1.00271567  1075
