OBJECT_NAME,OBJECT_ID,EPOCH,MEAN_MOTION,ECCENTRICITY,INCLINATION,RA_OF_ASC_NODE,ARG_OF_PERICENTER,MEAN_ANOMALY,EPHEMERIS_TYPE,CLASSIFICATION_TYPE,NORAD_CAT_ID,ELEMENT_SET_NO,REV_AT_EPOCH,BSTAR,MEAN_MOTION_DOT,MEAN_MOTION_DDOT
THURAYA-4,2025-001A,2026-06-25T04:15:21.084768,1.00274366,.00001518,0.0269,69.4729,343.0662,328.9298,0,U,62483,999,425,0,.149E-5,0
TJS-14,2025-017A,2026-06-25T07:33:09.756864,1.00268562,.0001143,0.7637,296.1963,297.0291,171.9379,0,U,62804,999,535,0,.126E-5,0
SPAINSAT NG I,2025-021A,2026-06-24T12:47:01.250304,1.00270272,.00001992,0.0160,358.9479,59.3861,75.0858,0,U,62852,999,406,0,.159E-5,0
QZS-6 (MICHIBIKI-6),2025-023A,2026-06-25T11:18:38.943648,1.00273250,.00019832,0.0575,280.3408,187.0873,66.3466,0,U,62876,999,503,0,-.223E-5,0
ZHONGXING-10R,2025-036A,2026-06-25T12:12:38.646432,1.00268970,.00041817,0.0698,251.2531,248.1411,67.9075,0,U,63075,999,504,0,-.342E-5,0
TIANLIAN 2-04,2025-062A,2026-06-25T09:33:22.382208,1.00272096,.0031219,4.3531,274.3186,10.2932,212.3327,0,U,63361,999,468,0,-.121E-5,0
TIANLIAN 2-05,2025-084A,2026-06-24T19:35:04.680096,1.00274890,.00033823,4.4314,279.7471,153.9556,153.4019,0,U,63662,999,445,0,.137E-5,0
SXM-10,2025-122A,2026-06-24T17:13:32.697984,1.00271244,.00018095,0.0207,35.0737,336.6407,43.3689,0,U,64290,999,375,0,-.8E-7,0
CHINASAT 9C,2025-132A,2026-06-25T11:18:38.943648,1.00272444,.0003347,0.0313,95.8264,355.1501,84.5000,0,U,64470,999,423,0,-.237E-5,0
MTG-S1,2025-143A,2026-06-24T17:46:37.650720,1.00400949,.00005853,0.5970,340.6178,288.6722,269.7793,0,U,64723,999,349,0,.23E-6,0
DROR 1,2025-148A,2026-06-25T09:09:31.129920,1.00271631,.0002756,0.0143,309.6884,87.7543,9.4359,0,U,64784,999,337,0,-.25E-6,0
SHIYAN-29,2025-196A,2026-06-24T15:45:30.028320,1.00283963,.0012596,28.8296,18.4412,175.5410,50.0372,0,U,65486,999,295,0,-.281E-5,0
NUSANTARA LIMA (NUSANTARA 5),2025-205A,2026-06-25T01:09:33.775776,1.00269667,.00003151,0.0367,148.1537,353.9981,261.2923,0,U,65588,999,279,0,-.348E-5,0
TJS-20,2025-238A,2026-06-24T23:12:27.466848,1.00269888,.00045875,5.4515,299.5256,162.2869,221.8174,0,U,66142,999,241,0,.37E-6,0
CMS-03 (GSAT-7R),2025-249B,2026-06-25T09:31:45.037056,1.00270425,.00020875,0.0251,273.9137,163.6784,52.8543,0,U,66311,999,243,0,-.66E-6,0
VIASAT-3 F2,2025-261A,2026-06-24T19:40:48.537408,1.00272510,.00002351,0.0049,139.4651,46.4657,303.2621,0,U,66454,999,287,0,-.225E-5,0
SHIJIAN-28 (SJ-28),2025-277A,2026-06-25T14:13:38.608608,1.00273811,.00008259,4.5163,271.9966,45.4521,286.5265,0,U,66549,999,223,0,-.345E-5,0
TJS-22,2025-290A,2026-06-24T20:31:41.901312,1.00272288,.0002258,1.5104,286.6656,322.1996,38.5189,0,U,66990,999,210,0,.4E-7,0
TJS-23,2025-306A,2026-06-24T13:57:31.654368,1.00267423,.00047733,5.5714,297.4484,179.8475,180.2975,0,U,67226,999,196,0,.26E-6,0
FENGYUN 4C,2025-312A,2026-06-25T13:13:56.697024,1.00271645,.00006189,0.0548,155.9512,357.6189,91.6096,0,U,67246,999,186,0,-.313E-5,0
SHIJIAN-29B (SJ-29B),2025-315C,2026-06-24T23:15:34.667136,1.00270682,.00043512,3.4168,94.9169,34.9381,205.3365,0,U,67403,999,176,0,-.6E-6,0
ELEKTRO-L 5,2026-028A,2026-06-25T00:43:06.119616,1.00272189,.00017676,0.2379,315.0403,182.6330,222.3363,0,U,67756,999,133,0,-.88E-6,0
JAM-E JAM 1,2026-028B,2026-06-25T12:45:42.329952,1.00280688,.00009514,0.2425,305.0946,273.7263,280.4246,0,U,67757,999,120,0,.166E-5,0
ECHOSTAR 25,2026-045A,2026-06-25T12:04:32.476224,1.00271567,.00018255,0.0145,10.0673,78.5248,256.1741,0,U,68126,999,107,0,-.46E-6,0
